SL-16 R/B               
1 25400U 98043G   26046.84058982  .00000067  00000+0  46957-4 0  9994
2 25400  98.8217   0.0542 0010960  78.8254 281.4157 14.26044501435871
SL-16 R/B               
1 25407U 98045B   26046.88882484  .00000316  00000+0  18365-3 0  9997
2 25407  71.0087 227.4191 0005677  47.7389 312.4215 14.16188504424019
ISS (ZARYA)             
1 25544U 98067A   26046.82773377  .00012360  00000+0  23475-3 0  9997
2 25544  51.6318 180.4216 0010986 102.2508 257.9711 15.48632469552945
CZ-4B R/B               
1 25732U 99025C   26046.73415722  .00000064  00000+0  51524-4 0  9993
2 25732  98.6671  91.5310 0037890  49.3783  59.2279 14.18260846385053
OKEAN-O                 
1 25860U 99039A   26046.75143423  .00000740  00000+0  10399-3 0  9993
2 25860  97.9492 106.8606 0001831  81.6992 278.4428 14.80298888431142
SL-16 R/B               
1 25861U 99039B   26046.75202011  .00000639  00000+0  87921-4 0  9996
2 25861  98.0014 105.8758 0014093 333.5612  26.4880 14.81700076433619
DELTA 2 R/B             
1 25876U 99041E   26046.92053899  .00002100  00000+0  37519-3 0  9994
2 25876  51.7656  28.2148 0502246 284.1302  70.4330 14.11754716359959
HELIOS 1B               
1 25977U 99064A   26046.71946231  .00001885  00000+0  21388-3 0  9995
2 25977  98.1722 308.3148 0002282 103.9950 256.1520 14.87604952681999
TERRA                   
1 25994U 99068A   26046.93320141  .00000500  00000+0  11111-3 0  9994
2 25994  97.9641 101.1939 0001164 222.3607 182.2640 14.60990704391900
SL-16 R/B               
1 26070U 00006B   26046.68658934 -.00000197  00000+0 -75808-4 0  9998
2 26070  71.0026 144.1020 0018063 221.2250 138.7510 14.15818879345444
TITAN 4B R/B            
1 26474U 00047B   26046.89609077  .00003432  00000+0  21939-3 0  9996
2 26474  67.9889 101.7857 0037112  62.0125 298.4771 15.09370304389629
ENVISAT                 
1 27386U 02009A   26046.83992301  .00000130  00000+0  56027-4 0  9997
2 27386  98.3692   0.9627 0001350  86.9113 288.8473 14.39028606256031
