CCSDS_OMM_VERS = 2.0
CREATION_DATE  = 
ORIGINATOR     = 

OBJECT_NAME    = SL-16 R/B
OBJECT_ID      = 1998-043G
CENTER_NAME    = EARTH
REF_FRAME      = TEME
TIME_SYSTEM    = UTC
MEAN_ELEMENT_THEORY = SGP/SGP4

EPOCH          = 2026-02-15T20:10:26.960448
MEAN_MOTION    = 14.26044501
ECCENTRICITY   = .00109608
INCLINATION    = 98.8217
RA_OF_ASC_NODE = 0.0542
ARG_OF_PERICENTER = 78.8254
MEAN_ANOMALY   = 281.4157

EPHEMERIS_TYPE = 0
CLASSIFICATION_TYPE = U
NORAD_CAT_ID   = 25400
ELEMENT_SET_NO = 999
REV_AT_EPOCH   = 43587
BSTAR          = .46957277E-4
MEAN_MOTION_DOT = .67E-6
MEAN_MOTION_DDOT = 0

CCSDS_OMM_VERS = 2.0
CREATION_DATE  = 
ORIGINATOR     = 

OBJECT_NAME    = SL-16 R/B
OBJECT_ID      = 1998-045B
CENTER_NAME    = EARTH
REF_FRAME      = TEME
TIME_SYSTEM    = UTC
MEAN_ELEMENT_THEORY = SGP/SGP4

EPOCH          = 2026-02-15T21:19:54.466176
MEAN_MOTION    = 14.16188504
ECCENTRICITY   = .00056771
INCLINATION    = 71.0087
RA_OF_ASC_NODE = 227.4191
ARG_OF_PERICENTER = 47.7389
MEAN_ANOMALY   = 312.4215

EPHEMERIS_TYPE = 0
CLASSIFICATION_TYPE = U
NORAD_CAT_ID   = 25407
ELEMENT_SET_NO = 999
REV_AT_EPOCH   = 42401
BSTAR          = .18365282E-3
MEAN_MOTION_DOT = .316E-5
MEAN_MOTION_DDOT = 0

CCSDS_OMM_VERS = 2.0
CREATION_DATE  = 
ORIGINATOR     = 

OBJECT_NAME    = ISS (ZARYA)
OBJECT_ID      = 1998-067A
CENTER_NAME    = EARTH
REF_FRAME      = TEME
TIME_SYSTEM    = UTC
MEAN_ELEMENT_THEORY = SGP/SGP4

EPOCH          = 2026-02-15T19:51:56.197728
MEAN_MOTION    = 15.48632469
ECCENTRICITY   = .0010986
INCLINATION    = 51.6318
RA_OF_ASC_NODE = 180.4216
ARG_OF_PERICENTER = 102.2508
MEAN_ANOMALY   = 257.9711

EPHEMERIS_TYPE = 0
CLASSIFICATION_TYPE = U
NORAD_CAT_ID   = 25544
ELEMENT_SET_NO = 999
REV_AT_EPOCH   = 55294
BSTAR          = .23474601E-3
MEAN_MOTION_DOT = .1236E-3
MEAN_MOTION_DDOT = 0

CCSDS_OMM_VERS = 2.0
CREATION_DATE  = 
ORIGINATOR     = 

OBJECT_NAME    = CZ-4B R/B
OBJECT_ID      = 1999-025C
CENTER_NAME    = EARTH
REF_FRAME      = TEME
TIME_SYSTEM    = UTC
MEAN_ELEMENT_THEORY = SGP/SGP4

EPOCH          = 2026-02-15T17:37:11.183808
MEAN_MOTION    = 14.18260846
ECCENTRICITY   = .00378901
INCLINATION    = 98.6671
RA_OF_ASC_NODE = 91.5310
ARG_OF_PERICENTER = 49.3783
MEAN_ANOMALY   = 59.2279

EPHEMERIS_TYPE = 0
CLASSIFICATION_TYPE = U
NORAD_CAT_ID   = 25732
ELEMENT_SET_NO = 999
REV_AT_EPOCH   = 38505
BSTAR          = .51523692E-4
MEAN_MOTION_DOT = .64E-6
MEAN_MOTION_DDOT = 0

CCSDS_OMM_VERS = 2.0
CREATION_DATE  = 
ORIGINATOR     = 

OBJECT_NAME    = OKEAN-O
OBJECT_ID      = 1999-039A
CENTER_NAME    = EARTH
REF_FRAME      = TEME
TIME_SYSTEM    = UTC
MEAN_ELEMENT_THEORY = SGP/SGP4

EPOCH          = 2026-02-15T18:02:03.917472
MEAN_MOTION    = 14.80298888
ECCENTRICITY   = .00018313
INCLINATION    = 97.9492
RA_OF_ASC_NODE = 106.8606
ARG_OF_PERICENTER = 81.6992
MEAN_ANOMALY   = 278.4428

EPHEMERIS_TYPE = 0
CLASSIFICATION_TYPE = U
NORAD_CAT_ID   = 25860
ELEMENT_SET_NO = 999
REV_AT_EPOCH   = 43114
BSTAR          = .10398607E-3
MEAN_MOTION_DOT = .74E-5
MEAN_MOTION_DDOT = 0

CCSDS_OMM_VERS = 2.0
CREATION_DATE  = 
ORIGINATOR     = 

OBJECT_NAME    = SL-16 R/B
OBJECT_ID      = 1999-039B
CENTER_NAME    = EARTH
REF_FRAME      = TEME
TIME_SYSTEM    = UTC
MEAN_ELEMENT_THEORY = SGP/SGP4

EPOCH          = 2026-02-15T18:02:54.537504
MEAN_MOTION    = 14.81700076
ECCENTRICITY   = .00140931
INCLINATION    = 98.0014
RA_OF_ASC_NODE = 105.8758
ARG_OF_PERICENTER = 333.5612
MEAN_ANOMALY   = 26.4880

EPHEMERIS_TYPE = 0
CLASSIFICATION_TYPE = U
NORAD_CAT_ID   = 25861
ELEMENT_SET_NO = 999
REV_AT_EPOCH   = 43361
BSTAR          = .87920703E-4
MEAN_MOTION_DOT = .639E-5
MEAN_MOTION_DDOT = 0

CCSDS_OMM_VERS = 2.0
CREATION_DATE  = 
ORIGINATOR     = 

OBJECT_NAME    = DELTA 2 R/B
OBJECT_ID      = 1999-041E
CENTER_NAME    = EARTH
REF_FRAME      = TEME
TIME_SYSTEM    = UTC
MEAN_ELEMENT_THEORY = SGP/SGP4

EPOCH          = 2026-02-15T22:05:34.568736
MEAN_MOTION    = 14.11754716
ECCENTRICITY   = .0502246
INCLINATION    = 51.7656
RA_OF_ASC_NODE = 28.2148
ARG_OF_PERICENTER = 284.1302
MEAN_ANOMALY   = 70.4330

EPHEMERIS_TYPE = 0
CLASSIFICATION_TYPE = U
NORAD_CAT_ID   = 25876
ELEMENT_SET_NO = 999
REV_AT_EPOCH   = 35995
BSTAR          = .37519294E-3
MEAN_MOTION_DOT = .21E-4
MEAN_MOTION_DDOT = 0

CCSDS_OMM_VERS = 2.0
CREATION_DATE  = 
ORIGINATOR     = 

OBJECT_NAME    = HELIOS 1B
OBJECT_ID      = 1999-064A
CENTER_NAME    = EARTH
REF_FRAME      = TEME
TIME_SYSTEM    = UTC
MEAN_ELEMENT_THEORY = SGP/SGP4

EPOCH          = 2026-02-15T17:16:01.543584
MEAN_MOTION    = 14.87604952
ECCENTRICITY   = .00022823
INCLINATION    = 98.1722
RA_OF_ASC_NODE = 308.3148
ARG_OF_PERICENTER = 103.9950
MEAN_ANOMALY   = 256.1520

EPHEMERIS_TYPE = 0
CLASSIFICATION_TYPE = U
NORAD_CAT_ID   = 25977
ELEMENT_SET_NO = 999
REV_AT_EPOCH   = 68199
BSTAR          = .21387947E-3
MEAN_MOTION_DOT = .1885E-4
MEAN_MOTION_DDOT = 0

CCSDS_OMM_VERS = 2.0
CREATION_DATE  = 
ORIGINATOR     = 

OBJECT_NAME    = TERRA
OBJECT_ID      = 1999-068A
CENTER_NAME    = EARTH
REF_FRAME      = TEME
TIME_SYSTEM    = UTC
MEAN_ELEMENT_THEORY = SGP/SGP4

EPOCH          = 2026-02-15T22:23:48.601824
MEAN_MOTION    = 14.60990704
ECCENTRICITY   = .00011646
INCLINATION    = 97.9641
RA_OF_ASC_NODE = 101.1939
ARG_OF_PERICENTER = 222.3607
MEAN_ANOMALY   = 182.2640

EPHEMERIS_TYPE = 0
CLASSIFICATION_TYPE = U
NORAD_CAT_ID   = 25994
ELEMENT_SET_NO = 999
REV_AT_EPOCH   = 39190
BSTAR          = .11111472E-3
MEAN_MOTION_DOT = .5E-5
MEAN_MOTION_DDOT = 0

CCSDS_OMM_VERS = 2.0
CREATION_DATE  = 
ORIGINATOR     = 

OBJECT_NAME    = SL-16 R/B
OBJECT_ID      = 2000-006B
CENTER_NAME    = EARTH
REF_FRAME      = TEME
TIME_SYSTEM    = UTC
MEAN_ELEMENT_THEORY = SGP/SGP4

EPOCH          = 2026-02-15T16:28:41.318976
MEAN_MOTION    = 14.15818879
ECCENTRICITY   = .00180637
INCLINATION    = 71.0026
RA_OF_ASC_NODE = 144.1020
ARG_OF_PERICENTER = 221.2250
MEAN_ANOMALY   = 138.7510

EPHEMERIS_TYPE = 0
CLASSIFICATION_TYPE = U
NORAD_CAT_ID   = 26070
ELEMENT_SET_NO = 999
REV_AT_EPOCH   = 34544
BSTAR          = -.75807811E-4
MEAN_MOTION_DOT = -.197E-5
MEAN_MOTION_DDOT = 0

CCSDS_OMM_VERS = 2.0
CREATION_DATE  = 
ORIGINATOR     = 

OBJECT_NAME    = TITAN 4B R/B
OBJECT_ID      = 2000-047B
CENTER_NAME    = EARTH
REF_FRAME      = TEME
TIME_SYSTEM    = UTC
MEAN_ELEMENT_THEORY = SGP/SGP4

EPOCH          = 2026-02-15T21:30:22.242528
MEAN_MOTION    = 15.09370304
ECCENTRICITY   = .0037112
INCLINATION    = 67.9889
RA_OF_ASC_NODE = 101.7857
ARG_OF_PERICENTER = 62.0125
MEAN_ANOMALY   = 298.4771

EPHEMERIS_TYPE = 0
CLASSIFICATION_TYPE = U
NORAD_CAT_ID   = 26474
ELEMENT_SET_NO = 999
REV_AT_EPOCH   = 38962
BSTAR          = .2193923E-3
MEAN_MOTION_DOT = .3432E-4
MEAN_MOTION_DDOT = 0

CCSDS_OMM_VERS = 2.0
CREATION_DATE  = 
ORIGINATOR     = 

OBJECT_NAME    = ENVISAT
OBJECT_ID      = 2002-009A
CENTER_NAME    = EARTH
REF_FRAME      = TEME
TIME_SYSTEM    = UTC
MEAN_ELEMENT_THEORY = SGP/SGP4

EPOCH          = 2026-02-15T20:09:29.348064
MEAN_MOTION    = 14.39028606
ECCENTRICITY   = .00013502
INCLINATION    = 98.3692
RA_OF_ASC_NODE = 0.9627
ARG_OF_PERICENTER = 86.9113
MEAN_ANOMALY   = 288.8473

EPHEMERIS_TYPE = 0
CLASSIFICATION_TYPE = U
NORAD_CAT_ID   = 27386
ELEMENT_SET_NO = 999
REV_AT_EPOCH   = 25603
BSTAR          = .56027089E-4
MEAN_MOTION_DOT = .13E-5
MEAN_MOTION_DDOT = 0

